ADRAS-J                 
1 58992U 24034A   24281.50621580  .00012128  00000+0  10714-2 0  9998
2 58992  98.2268 259.8215 0044532  41.4977 318.9609 14.95746138 34643
